EARTHCARE               
1 59908U 24101A   24225.59483164  .00048692  00000+0  69393-3 0  9995
2 59908  96.9851 352.0282 0002648 241.4081 118.6908 15.56172982 11756
